0 ARIANE 1 DEB
1 16616U 86019D   13280.73716894  .00000191  00000-0  94859-4 0  6169
2 16616 098.7775 332.7105 0008088 190.1769 316.9653 14.28171425436363
0 ARIANE 1 DEB
1 16616U 86019D   13282.82082372  .00000185  00000-0  92268-4 0  6174
2 16616 098.7775 334.8050 0008203 184.3107 229.7021 14.28173222436665
0 ARIANE 1 DEB
1 16616U 86019D   13287.45862530  .00000265  00000-0  12447-3 0  6191
2 16616 098.7765 339.4671 0008421 171.6388 313.7793 14.28175563437320
0 ARIANE 1 DEB
1 16616U 86019D   13289.48784169  .00000263  00000-0  12357-3 0  6207
2 16616 098.7759 341.5069 0008526 166.0455 306.5426 14.28177794437610
0 ARIANE 1 DEB
1 16616U 86019D   13292.00154154  .00000314  00000-0  14439-3 0  6215
2 16616 098.7753 344.0332 0008622 159.2104 270.0958 14.28179262437973
0 ARIANE 1 DEB
1 16616U 86019D   13294.17285461  .00000287  00000-0  13329-3 0  6228
2 16616 098.7753 346.2152 0008677 153.6473 273.0222 14.28181095438283
